CCSDS_OEM_VERS = 1.0
CREATION_DATE  = 2017-05-11T12:00:49
ORIGINATOR     = GMAT USER

META_START
OBJECT_NAME          = MOPSSat_alt_35785_km_RAAN_270_104
OBJECT_ID            = SatId
CENTER_NAME          = Earth
REF_FRAME            = EME2000
TIME_SYSTEM          = UTC
START_TIME           = 2017-01-01T00:00:00.000
USEABLE_START_TIME   = 2017-01-01T00:00:00.000
USEABLE_STOP_TIME    = 2017-01-02T00:00:00.000
STOP_TIME            = 2017-01-02T00:00:00.000
INTERPOLATION        = Lagrange
INTERPOLATION_DEGREE = 7 
META_STOP


                                                                                   

2017-01-01T17:06:40.000  -3.928056653139747e+04   1.727716750801478e+04  -6.924649547949683e+03  -9.056810017478605e-01  -2.835642986709132e+00  -1.594739599991530e-01
2017-01-01T17:06:50.000  -3.928961380750166e+04   1.724880688817536e+04  -6.926242606519473e+03  -9.037741172471410e-01  -2.836480884038771e+00  -1.591377360142271e-01
2017-01-01T17:07:00.000  -3.929864201069137e+04   1.722043789545948e+04  -6.927832302132499e+03  -9.018664209888299e-01  -2.837317568155309e+00  -1.588013690228126e-01
2017-01-01T17:07:10.000  -3.930765113294885e+04   1.719206054170140e+04  -6.929418633376274e+03  -8.999579135000144e-01  -2.838153038213675e+00  -1.584648591179131e-01
2017-01-01T17:07:20.000  -3.931664116616830e+04   1.716367483903074e+04  -6.931001598822817e+03  -8.980485953278760e-01  -2.838987293360067e+00  -1.581282063960749e-01
2017-01-01T17:07:30.000  -3.932561210224528e+04   1.713528079960073e+04  -6.932581197044367e+03  -8.961384670214562e-01  -2.839820332740169e+00  -1.577914109541723e-01
2017-01-01T17:07:40.000  -3.933456393307557e+04   1.710687843558774e+04  -6.934157426613227e+03  -8.942275291316096e-01  -2.840652155499077e+00  -1.574544728893995e-01
2017-01-01T17:07:50.000  -3.934349665047167e+04   1.707846775946554e+04  -6.935730286087030e+03  -8.923157822294900e-01  -2.841482760773467e+00  -1.571173923025293e-01
2017-01-01T17:08:00.000  -3.935241024627638e+04   1.705004878363637e+04  -6.937299774028745e+03  -8.904032268816975e-01  -2.842312147702214e+00  -1.567801692935323e-01
2017-01-01T17:08:10.000  -3.936130471231690e+04   1.702162152057887e+04  -6.938865888998587e+03  -8.884898636602443e-01  -2.843140315422110e+00  -1.564428039633327e-01
2017-01-01T17:08:20.000  -3.937018004060888e+04   1.699318598219591e+04  -6.940428629589975e+03  -8.865756930986528e-01  -2.843967263086867e+00  -1.561052964060685e-01
2017-01-01T17:08:30.000  -3.937903622315175e+04   1.696474218046833e+04  -6.941987994393459e+03  -8.846607157359644e-01  -2.844792989848061e+00  -1.557676467168508e-01
2017-01-01T17:08:40.000  -3.938787325198168e+04   1.693629012728631e+04  -6.943543982006068e+03  -8.827449321053852e-01  -2.845617494860054e+00  -1.554298549897616e-01
2017-01-01T17:08:50.000  -3.939669111902839e+04   1.690782983490268e+04  -6.945096591006077e+03  -8.808283427647869e-01  -2.846440777266705e+00  -1.550919213232321e-01
2017-01-01T17:09:00.000  -3.940548981623367e+04   1.687936131555901e+04  -6.946645819973908e+03  -8.789109482715569e-01  -2.847262836212358e+00  -1.547538458156080e-01
2017-01-01T17:09:10.000  -3.941426933552406e+04   1.685088458157177e+04  -6.948191667487283e+03  -8.769927491883915e-01  -2.848083670839312e+00  -1.544156285661710e-01
2017-01-01T17:09:20.000  -3.942302966882257e+04   1.682239964529939e+04  -6.949734132123309e+03  -8.750737460811000e-01  -2.848903280288872e+00  -1.540772696747519e-01
2017-01-01T17:09:30.000  -3.943177080805240e+04   1.679390651912588e+04  -6.951273212459135e+03  -8.731539395174848e-01  -2.849721663701742e+00  -1.537387692415327e-01
2017-01-01T17:09:40.000  -3.944049274514757e+04   1.676540521542673e+04  -6.952808907073811e+03  -8.712333300650456e-01  -2.850538820219005e+00  -1.534001273666420e-01
2017-01-01T17:09:50.000  -3.944919547205889e+04   1.673689574655344e+04  -6.954341214549341e+03  -8.693119182899528e-01  -2.851354748982651e+00  -1.530613441499741e-01
2017-01-01T17:10:00.000  -3.945787898076279e+04   1.670837812479939e+04  -6.955870133472259e+03  -8.673897047547283e-01  -2.852169449136452e+00  -1.527224196907799e-01
2017-01-01T17:10:10.000  -3.946654326323561e+04   1.667985236248663e+04  -6.957395662429065e+03  -8.654666900241107e-01  -2.852982919823528e+00  -1.523833540887012e-01
2017-01-01T17:10:20.000  -3.947518831156582e+04   1.665131847158938e+04  -6.958917800026015e+03  -8.635428746396375e-01  -2.853795160196937e+00  -1.520441474392888e-01
2017-01-01T17:10:30.000  -3.948381411781747e+04   1.662277646419012e+04  -6.960436544865070e+03  -8.616182591504296e-01  -2.854606169406817e+00  -1.517047998394310e-01
2017-01-01T17:10:40.000  -3.949242067408222e+04   1.659422635230736e+04  -6.961951895553042e+03  -8.596928441015671e-01  -2.855415946605249e+00  -1.513653113853031e-01
2017-01-01T17:10:50.000  -3.950100797227772e+04   1.656566814856301e+04  -6.963463850666119e+03  -8.577666300791006e-01  -2.856224490927334e+00  -1.510256821803046e-01
2017-01-01T17:11:00.000  -3.950957600434931e+04   1.653710186551508e+04  -6.964972408785364e+03  -8.558396176650472e-01  -2.857031801510127e+00  -1.506859123271237e-01
2017-01-01T17:11:10.000  -3.951812476221777e+04   1.650852751582980e+04  -6.966477568487512e+03  -8.539118074490011e-01  -2.857837877487750e+00  -1.503460019297846e-01
2017-01-01T17:11:20.000  -3.952665423791801e+04   1.647994511182624e+04  -6.967979328369401e+03  -8.519831999974404e-01  -2.858642718004393e+00  -1.500059510882356e-01
2017-01-01T17:11:30.000  -3.953516442348426e+04   1.645135466585205e+04  -6.969477687027746e+03  -8.500537958790432e-01  -2.859446322203560e+00  -1.496657599028129e-01
2017-01-01T17:11:40.000  -3.954365531097666e+04   1.642275619019675e+04  -6.970972643063837e+03  -8.481235956588530e-01  -2.860248689230547e+00  -1.493254284732120e-01
2017-01-01T17:11:50.000  -3.955212689246986e+04   1.639414969712491e+04  -6.972464195081505e+03  -8.461925999004958e-01  -2.861049818231423e+00  -1.489849568988782e-01
2017-01-01T17:12:00.000  -3.956057916004929e+04   1.636553519889257e+04  -6.973952341686494e+03  -8.442608091673059e-01  -2.861849708352641e+00  -1.486443452792055e-01
2017-01-01T17:12:10.000  -3.956901210580120e+04   1.633691270778150e+04  -6.975437081484688e+03  -8.423282240246377e-01  -2.862648358740079e+00  -1.483035937139439e-01
2017-01-01T17:12:20.000  -3.957742572180669e+04   1.630828223611473e+04  -6.976918413081074e+03  -8.403948450409028e-01  -2.863445768538529e+00  -1.479627023033827e-01
2017-01-01T17:12:30.000  -3.958582000013323e+04   1.627964379629086e+04  -6.978396335078223e+03  -8.384606727899020e-01  -2.864241936890844e+00  -1.476216711487612e-01
2017-01-01T17:12:40.000  -3.959419493285961e+04   1.625099740069679e+04  -6.979870846080723e+03  -8.365257078449286e-01  -2.865036862940316e+00  -1.472805003512294e-01
2017-01-01T17:12:50.000  -3.960255051196745e+04   1.622234306208595e+04  -6.981341944676047e+03  -8.345899508043423e-01  -2.865830545820332e+00  -1.469391900163565e-01
2017-01-01T17:13:00.000  -3.961088672947313e+04   1.619368079312020e+04  -6.982809629457787e+03  -8.326534022605966e-01  -2.866622984666943e+00  -1.465977402486709e-01
2017-01-01T17:13:10.000  -3.961920357737850e+04   1.616501060654006e+04  -6.984273899016982e+03  -8.307160628117494e-01  -2.867414178614176e+00  -1.462561511536887e-01
2017-01-01T17:13:20.000  -3.962750104786244e+04   1.613633251450532e+04  -6.985734751975841e+03  -8.287779330169106e-01  -2.868204126812247e+00  -1.459144228300589e-01
2017-01-01T17:13:30.000  -3.963577913308963e+04   1.610764652925269e+04  -6.987192186954081e+03  -8.268390134406743e-01  -2.868992828409388e+00  -1.455725553773974e-01
2017-01-01T17:13:40.000  -3.964403782525430e+04   1.607895266294700e+04  -6.988646202576606e+03  -8.248993046430700e-01  -2.869780282555982e+00  -1.452305488945153e-01
2017-01-01T17:13:50.000  -3.965227711647048e+04   1.605025092805162e+04  -6.990096797454226e+03  -8.229588072045720e-01  -2.870566488394201e+00  -1.448884034838287e-01
2017-01-01T17:14:00.000  -3.966049699885429e+04   1.602154133705379e+04  -6.991543970198105e+03  -8.210175217075654e-01  -2.871351445065749e+00  -1.445461192480899e-01
2017-01-01T17:14:10.000  -3.966869746452283e+04   1.599282390246411e+04  -6.992987719419583e+03  -8.190754487362997e-01  -2.872135151711797e+00  -1.442036962903807e-01
2017-01-01T17:14:20.000  -3.967687850551791e+04   1.596409863709372e+04  -6.994428043716755e+03  -8.171325888956694e-01  -2.872917607465613e+00  -1.438611347174226e-01
2017-01-01T17:14:30.000  -3.968504011390984e+04   1.593536555368142e+04  -6.995864941692724e+03  -8.151889427859639e-01  -2.873698811462552e+00  -1.435184346351250e-01
2017-01-01T17:14:40.000  -3.969318228175613e+04   1.590662466504042e+04  -6.997298411948358e+03  -8.132445110128019e-01  -2.874478762836110e+00  -1.431755961503373e-01
2017-01-01T17:14:50.000  -3.970130500128557e+04   1.587787598340982e+04  -6.998728453114665e+03  -8.112992941432582e-01  -2.875257460735517e+00  -1.428326193631125e-01
2017-01-01T17:15:00.000  -3.970940826471399e+04   1.584911952110304e+04  -7.000155063820386e+03  -8.093532927497320e-01  -2.876034904308130e+00  -1.424895043744426e-01
2017-01-01T17:15:10.000  -3.971749206428636e+04   1.582035529036138e+04  -7.001578242699385e+03  -8.074065074000427e-01  -2.876811092703436e+00  -1.421462512845121e-01
2017-01-01T17:15:20.000  -3.972555639216932e+04   1.579158330372549e+04  -7.002997988371742e+03  -8.054589386825374e-01  -2.877586025062829e+00  -1.418028601971246e-01
2017-01-01T17:15:30.000  -3.973360124053175e+04   1.576280357375986e+04  -7.004414299457941e+03  -8.035105871874829e-01  -2.878359700527245e+00  -1.414593312164226e-01
2017-01-01T17:15:40.000  -3.974162660154370e+04   1.573401611305243e+04  -7.005827174578661e+03  -8.015614535070236e-01  -2.879132118237103e+00  -1.411156644468793e-01
